[
    {
        "Altitude(m)": 610405.302561529,
        "Argument of Periapsis(deg)": 0.0,
        "Eccentricity": 0.0,
        "Inclination(deg)": 60.0,
        "Latitude(deg)": 52.111215102632414,
        "Longitude(deg)": -7.522703923628402,
        "Mean Anomaly(deg)": -245.4545,
        "RAAN(deg)": 320.0,
        "Satellite Name": "Test1 1415",
        "Satellite Number": 1415,
        "Semi-Major Axis(m)": 6980739.136638005,
        "Time(s)": 0
    },
    {
        "Altitude(m)": 610321.8759426321,
        "Argument of Periapsis(deg)": 0.00010418945913296404,
        "Eccentricity": 0.0,
        "Inclination(deg)": 60.0,
        "Latitude(deg)": 51.74593135809645,
        "Longitude(deg)": -6.753809452793951,
        "Mean Anomaly(deg)": -244.83439385453815,
        "RAAN(deg)": 319.9995799508602,
        "Satellite Name": "Test1 1415",
        "Satellite Number": 1415,
        "Semi-Major Axis(m)": 6980739.136638005,
        "Time(s)": 10
    }
]